start=new Date('2023-05-08T00:00:00.000Z').valueOf();
sats=[{"ECCENTRICITY":"0.00012430","APOAPSIS":"540.600","PERIOD":"95.437","COUNTRY_CODE":"US","INCLINATION":"53.2155","OBJECT_NAME":"STARLINK-3560","OBJECT_ID":"2022-022H","TLE_LINE2":"2 51859  53.2155 343.6134 0001243  80.5306 279.5826 15.08841815 66638","ARG_OF_PERICENTER":"80.5306","OBJECT_TYPE":"PAYLOAD","REF_FRAME":"TEME","LAUNCH_DATE":"2022-03-03","REV_AT_EPOCH":"6663","RCS_SIZE":"LARGE","MEAN_MOTION_DOT":"-0.00000461","EPHEMERIS_TYPE":"0","SEMIMAJOR_AXIS":"6917.875","SITE":"AFETR","EPOCH":"2023-05-07T20:47:23.681184","TIME_SYSTEM":"UTC","GP_ID":"231405366","MEAN_MOTION":"15.08841815","CLASSIFICATION_TYPE":"U","PERIAPSIS":"538.880","ELEMENT_SET_NO":"999","NORAD_CAT_ID":"51859","RA_OF_ASC_NODE":"343.6134","DECAY_DATE":null,"BSTAR":"-0.00001086100000","FILE":"3903341","MEAN_ANOMALY":"279.5826","MEAN_ELEMENT_THEORY":"SGP4","MEAN_MOTION_DDOT":"0.0000000000000","TLE_LINE1":"1 51859U 22022H   23127.86624631 -.00000461  00000-0 -10861-4 0  9990","CENTER_NAME":"EARTH"},{"ELEMENT_SET_NO":"999","PERIAPSIS":"538.963","CLASSIFICATION_TYPE":"U","MEAN_MOTION":"15.08834529","GP_ID":"231405358","NORAD_CAT_ID":"51860","RA_OF_ASC_NODE":"343.5753","DECAY_DATE":null,"BSTAR":"-0.00007248000000","MEAN_ANOMALY":"278.5067","FILE":"3903341","MEAN_MOTION_DDOT":"0.0000000000000","MEAN_ELEMENT_THEORY":"SGP4","CENTER_NAME":"EARTH","TLE_LINE1":"1 51860U 22022J   23127.87264802 -.00001441  00000-0 -72480-4 0  9997","INCLINATION":"53.2160","COUNTRY_CODE":"US","OBJECT_NAME":"STARLINK-3559","OBJECT_ID":"2022-022J","PERIOD":"95.438","ECCENTRICITY":"0.00011550","APOAPSIS":"540.561","ARG_OF_PERICENTER":"81.6056","TLE_LINE2":"2 51860  53.2160 343.5753 0001155  81.6056 278.5067 15.08834529 66593","REF_FRAME":"TEME","OBJECT_TYPE":"PAYLOAD","LAUNCH_DATE":"2022-03-03","REV_AT_EPOCH":"6659","MEAN_MOTION_DOT":"-0.00001441","RCS_SIZE":"LARGE","SEMIMAJOR_AXIS":"6917.897","EPHEMERIS_TYPE":"0","TIME_SYSTEM":"UTC","EPOCH":"2023-05-07T20:56:36.788928","SITE":"AFETR"},{"MEAN_MOTION_DOT":"0.00000950","RCS_SIZE":"LARGE","REV_AT_EPOCH":"6657","TIME_SYSTEM":"UTC","EPOCH":"2023-05-07T20:35:25.033632","SITE":"AFETR","SEMIMAJOR_AXIS":"6917.890","EPHEMERIS_TYPE":"0","ARG_OF_PERICENTER":"103.5030","TLE_LINE2":"2 51861  53.2170 343.6357 0001318 103.5030 256.6109 15.08836746 66578","OBJECT_ID":"2022-022K","COUNTRY_CODE":"US","INCLINATION":"53.2170","OBJECT_NAME":"STARLINK-3562","PERIOD":"95.438","ECCENTRICITY":"0.00013180","APOAPSIS":"540.667","LAUNCH_DATE":"2022-03-03","REF_FRAME":"TEME","OBJECT_TYPE":"PAYLOAD","MEAN_MOTION_DDOT":"0.0000000000000","MEAN_ELEMENT_THEORY":"SGP4","MEAN_ANOMALY":"256.6109","FILE":"3903342","CENTER_NAME":"EARTH","TLE_LINE1":"1 51861U 22022K   23127.85792863  .00000950  00000-0  77775-4 0  9993","NORAD_CAT_ID":"51861","ELEMENT_SET_NO":"999","PERIAPSIS":"538.844","CLASSIFICATION_TYPE":"U","MEAN_MOTION":"15.08836746","GP_ID":"231405698","BSTAR":"0.00007777500000","DECAY_DATE":null,"RA_OF_ASC_NODE":"343.6357"},{"RA_OF_ASC_NODE":"343.5835","BSTAR":"-0.00022383000000","DECAY_DATE":null,"GP_ID":"231406534","MEAN_MOTION":"15.08848816","CLASSIFICATION_TYPE":"U","PERIAPSIS":"538.549","ELEMENT_SET_NO":"999","NORAD_CAT_ID":"51862","CENTER_NAME":"EARTH","TLE_LINE1":"1 51862U 22022L   23127.86896715 -.00003849  00000-0 -22383-3 0  9992","FILE":"3903395","MEAN_ANOMALY":"234.3146","MEAN_ELEMENT_THEORY":"SGP4","MEAN_MOTION_DDOT":"0.0000000000000","OBJECT_TYPE":"PAYLOAD","REF_FRAME":"TEME","LAUNCH_DATE":"2022-03-03","APOAPSIS":"540.888","ECCENTRICITY":"0.00016900","PERIOD":"95.437","OBJECT_NAME":"STARLINK-3508","COUNTRY_CODE":"US","INCLINATION":"53.2189","OBJECT_ID":"2022-022L","TLE_LINE2":"2 51862  53.2189 343.5835 0001690 125.8003 234.3146 15.08848816 66642","ARG_OF_PERICENTER":"125.8003","EPHEMERIS_TYPE":"0","SEMIMAJOR_AXIS":"6917.853","SITE":"AFETR","EPOCH":"2023-05-07T20:51:18.761760","TIME_SYSTEM":"UTC","REV_AT_EPOCH":"6664","RCS_SIZE":"LARGE","MEAN_MOTION_DOT":"-0.00003849"},{"COUNTRY_CODE":"US","INCLINATION":"53.2162","OBJECT_NAME":"STARLINK-3555","OBJECT_ID":"2022-022M","PERIOD":"95.438","ECCENTRICITY":"0.00011150","APOAPSIS":"540.518","ARG_OF_PERICENTER":"84.5067","TLE_LINE2":"2 51863  53.2162 343.3747 0001115  84.5067 275.6052 15.08839479 66590","REF_FRAME":"TEME","OBJECT_TYPE":"PAYLOAD","LAUNCH_DATE":"2022-03-03","REV_AT_EPOCH":"6659","RCS_SIZE":"LARGE","MEAN_MOTION_DOT":"0.00002632","SEMIMAJOR_AXIS":"6917.882","EPHEMERIS_TYPE":"0","TIME_SYSTEM":"UTC","EPOCH":"2023-05-07T22:00:12.331296","SITE":"AFETR","ELEMENT_SET_NO":"999","PERIAPSIS":"538.976","CLASSIFICATION_TYPE":"U","MEAN_MOTION":"15.08839479","GP_ID":"231430386","NORAD_CAT_ID":"51863","RA_OF_ASC_NODE":"343.3747","BSTAR":"0.00018336000000","DECAY_DATE":null,"MEAN_ANOMALY":"275.6052","FILE":"3903413","MEAN_MOTION_DDOT":"0.0000000000000","MEAN_ELEMENT_THEORY":"SGP4","TLE_LINE1":"1 51863U 22022M   23127.91680939  .00002632  00000-0  18336-3 0  9998","CENTER_NAME":"EARTH"},{"RA_OF_ASC_NODE":"343.6239","BSTAR":"0.00003077900000","DECAY_DATE":null,"PERIAPSIS":"538.686","CLASSIFICATION_TYPE":"U","ELEMENT_SET_NO":"999","GP_ID":"231405385","MEAN_MOTION":"15.08837304","NORAD_CAT_ID":"51864","CENTER_NAME":"EARTH","TLE_LINE1":"1 51864U 22022N   23127.86256786  .00000202  00000-0  30779-4 0  9999","MEAN_ANOMALY":"263.9599","FILE":"3903343","MEAN_MOTION_DDOT":"0.0000000000000","MEAN_ELEMENT_THEORY":"SGP4","REF_FRAME":"TEME","OBJECT_TYPE":"PAYLOAD","LAUNCH_DATE":"2022-03-03","PERIOD":"95.438","COUNTRY_CODE":"US","INCLINATION":"53.2171","OBJECT_ID":"2022-022N","OBJECT_NAME":"STARLINK-3548","ECCENTRICITY":"0.00015430","APOAPSIS":"540.821","ARG_OF_PERICENTER":"96.1569","TLE_LINE2":"2 51864  53.2171 343.6239 0001543  96.1569 263.9599 15.08837304 66637","SEMIMAJOR_AXIS":"6917.889","EPHEMERIS_TYPE":"0","TIME_SYSTEM":"UTC","SITE":"AFETR","EPOCH":"2023-05-07T20:42:05.863104","REV_AT_EPOCH":"6663","MEAN_MOTION_DOT":"0.00000202","RCS_SIZE":"LARGE"},{"BSTAR":"0.00002152400000","DECAY_DATE":null,"RA_OF_ASC_NODE":"343.4074","NORAD_CAT_ID":"51865","MEAN_MOTION":"15.08836489","GP_ID":"231429884","ELEMENT_SET_NO":"999","CLASSIFICATION_TYPE":"U","PERIAPSIS":"539.127","TLE_LINE1":"1 51865U 22022P   23127.90944703  .00000055  00000-0  21524-4 0  9992","CENTER_NAME":"EARTH","MEAN_ELEMENT_THEORY":"SGP4","MEAN_MOTION_DDOT":"0.0000000000000","FILE":"3903413","MEAN_ANOMALY":"290.5751","LAUNCH_DATE":"2022-03-03","OBJECT_TYPE":"PAYLOAD","REF_FRAME":"TEME","TLE_LINE2":"2 51865  53.2174 343.4074 0000910  69.5339 290.5751 15.08836489 66596","ARG_OF_PERICENTER":"69.5339","APOAPSIS":"540.386","ECCENTRICITY":"0.00009100","COUNTRY_CODE":"US","INCLINATION":"53.2174","OBJECT_ID":"2022-022P","OBJECT_NAME":"STARLINK-3503","PERIOD":"95.438","EPOCH":"2023-05-07T21:49:36.223392","SITE":"AFETR","TIME_SYSTEM":"UTC","EPHEMERIS_TYPE":"0","SEMIMAJOR_AXIS":"6917.891","RCS_SIZE":"LARGE","MEAN_MOTION_DOT":"0.00000055","REV_AT_EPOCH":"6659"},{"TLE_LINE1":"1 51866U 22022Q   23127.92048930  .00000995  00000-0  80564-4 0  9994","CENTER_NAME":"EARTH","MEAN_ANOMALY":"274.9314","FILE":"3903413","MEAN_MOTION_DDOT":"0.0000000000000","MEAN_ELEMENT_THEORY":"SGP4","RA_OF_ASC_NODE":"343.3594","DECAY_DATE":null,"BSTAR":"0.00008056400000","CLASSIFICATION_TYPE":"U","PERIAPSIS":"538.961","ELEMENT_SET_NO":"999","GP_ID":"231430134","MEAN_MOTION":"15.08838243","NORAD_CAT_ID":"51866","SEMIMAJOR_AXIS":"6917.886","EPHEMERIS_TYPE":"0","TIME_SYSTEM":"UTC","SITE":"AFETR","EPOCH":"2023-05-07T22:05:30.275520","REV_AT_EPOCH":"6659","MEAN_MOTION_DOT":"0.00000995","RCS_SIZE":"LARGE","REF_FRAME":"TEME","OBJECT_TYPE":"PAYLOAD","LAUNCH_DATE":"2022-03-03","PERIOD":"95.438","COUNTRY_CODE":"US","INCLINATION":"53.2163","OBJECT_ID":"2022-022Q","OBJECT_NAME":"STARLINK-3553","APOAPSIS":"540.541","ECCENTRICITY":"0.00011420","ARG_OF_PERICENTER":"85.1808","TLE_LINE2":"2 51866  53.2163 343.3594 0001142  85.1808 274.9314 15.08838243 66595"},{"REV_AT_EPOCH":"6659","RCS_SIZE":"LARGE","MEAN_MOTION_DOT":"0.00000240","SEMIMAJOR_AXIS":"6917.897","EPHEMERIS_TYPE":"0","TIME_SYSTEM":"UTC","EPOCH":"2023-05-07T21:44:18.812256","SITE":"AFETR","COUNTRY_CODE":"US","INCLINATION":"53.2171","OBJECT_NAME":"STARLINK-3590","OBJECT_ID":"2022-022R","PERIOD":"95.438","ECCENTRICITY":"0.00012790","APOAPSIS":"540.647","ARG_OF_PERICENTER":"81.9386","TLE_LINE2":"2 51867  53.2171 343.4246 0001279  81.9386 278.1751 15.08834499 66596","REF_FRAME":"TEME","OBJECT_TYPE":"PAYLOAD","LAUNCH_DATE":"2022-03-03","MEAN_ANOMALY":"278.1751","FILE":"3903413","MEAN_MOTION_DDOT":"0.0000000000000","MEAN_ELEMENT_THEORY":"SGP4","TLE_LINE1":"1 51867U 22022R   23127.90577329  .00000240  00000-0  33180-4 0  9997","CENTER_NAME":"EARTH","ELEMENT_SET_NO":"999","PERIAPSIS":"538.877","CLASSIFICATION_TYPE":"U","MEAN_MOTION":"15.08834499","GP_ID":"231430885","NORAD_CAT_ID":"51867","RA_OF_ASC_NODE":"343.4246","BSTAR":"0.00003318000000","DECAY_DATE":null},{"TLE_LINE1":"1 51868U 22022S   23127.91312905 -.00000150  00000-0  86374-5 0  9991","CENTER_NAME":"EARTH","MEAN_MOTION_DDOT":"0.0000000000000","MEAN_ELEMENT_THEORY":"SGP4","MEAN_ANOMALY":"232.0694","FILE":"3903413","BSTAR":"0.00000863740000","DECAY_DATE":null,"RA_OF_ASC_NODE":"343.3900","NORAD_CAT_ID":"51868","ELEMENT_SET_NO":"999","PERIAPSIS":"538.920","CLASSIFICATION_TYPE":"U","MEAN_MOTION":"15.08836401","GP_ID":"231430636","TIME_SYSTEM":"UTC","EPOCH":"2023-05-07T21:54:54.349920","SITE":"AFETR","SEMIMAJOR_AXIS":"6917.891","EPHEMERIS_TYPE":"0","MEAN_MOTION_DOT":"-0.00000150","RCS_SIZE":"LARGE","REV_AT_EPOCH":"6659","LAUNCH_DATE":"2022-03-03","REF_FRAME":"TEME","OBJECT_TYPE":"PAYLOAD","ARG_OF_PERICENTER":"128.0408","TLE_LINE2":"2 51868  53.2171 343.3900 0001209 128.0408 232.0694 15.08836401 66594","COUNTRY_CODE":"US","OBJECT_NAME":"STARLINK-3578","INCLINATION":"53.2171","OBJECT_ID":"2022-022S","PERIOD":"95.438","APOAPSIS":"540.593","ECCENTRICITY":"0.00012090"}];
